[{"OBJECT_NAME":"STARLINK-2432","OBJECT_ID":"2021-018BF","EPOCH":"2025-09-25T06:34:35.439456","MEAN_MOTION":15.06383632,"ECCENTRICITY":0.00012352,"INCLINATION":53.0539,"RA_OF_ASC_NODE":254.2008,"ARG_OF_PERICENTER":103.3331,"MEAN_ANOMALY":256.7796,"EPHEMERIS_TYPE":0,"CLASSIFICATION_TYPE":"U","NORAD_CAT_ID":47840,"ELEMENT_SET_NO":999,"REV_AT_EPOCH":25194,"BSTAR":6.8146212e-5,"MEAN_MOTION_DOT":7.33e-6,"MEAN_MOTION_DDOT":0},{"OBJECT_NAME":"STARLINK-2433","OBJECT_ID":"2021-018BG","EPOCH":"2025-09-25T06:29:16.155168","MEAN_MOTION":15.0638129,"ECCENTRICITY":0.00014522,"INCLINATION":53.0547,"RA_OF_ASC_NODE":254.2147,"ARG_OF_PERICENTER":98.5695,"MEAN_ANOMALY":261.5459,"EPHEMERIS_TYPE":0,"CLASSIFICATION_TYPE":"U","NORAD_CAT_ID":47841,"ELEMENT_SET_NO":999,"REV_AT_EPOCH":25194,"BSTAR":-8.79411e-6,"MEAN_MOTION_DOT":-4.12e-6,"MEAN_MOTION_DDOT":0},{"OBJECT_NAME":"STARLINK-2435","OBJECT_ID":"2021-018BJ","EPOCH":"2025-09-25T07:05:44.847744","MEAN_MOTION":15.06392082,"ECCENTRICITY":0.00012169,"INCLINATION":53.054,"RA_OF_ASC_NODE":279.1021,"ARG_OF_PERICENTER":84.2992,"MEAN_ANOMALY":275.8135,"EPHEMERIS_TYPE":0,"CLASSIFICATION_TYPE":"U","NORAD_CAT_ID":47843,"ELEMENT_SET_NO":999,"REV_AT_EPOCH":25161,"BSTAR":7.595122e-5,"MEAN_MOTION_DOT":8.5e-6,"MEAN_MOTION_DDOT":0},{"OBJECT_NAME":"STARLINK-2446","OBJECT_ID":"2021-018BK","EPOCH":"2025-09-25T07:03:45.425664","MEAN_MOTION":15.06391571,"ECCENTRICITY":0.00013615,"INCLINATION":53.0548,"RA_OF_ASC_NODE":274.1067,"ARG_OF_PERICENTER":89.386,"MEAN_ANOMALY":270.7285,"EPHEMERIS_TYPE":0,"CLASSIFICATION_TYPE":"U","NORAD_CAT_ID":47844,"ELEMENT_SET_NO":999,"REV_AT_EPOCH":25166,"BSTAR":7.2145419e-5,"MEAN_MOTION_DOT":7.93e-6,"MEAN_MOTION_DDOT":0},{"OBJECT_NAME":"STARLINK-2453","OBJECT_ID":"2021-018BL","EPOCH":"2025-09-25T05:54:43.979040","MEAN_MOTION":15.06406724,"ECCENTRICITY":0.00014423,"INCLINATION":53.0537,"RA_OF_ASC_NODE":274.325,"ARG_OF_PERICENTER":82.9497,"MEAN_ANOMALY":277.1656,"EPHEMERIS_TYPE":0,"CLASSIFICATION_TYPE":"U","NORAD_CAT_ID":47845,"ELEMENT_SET_NO":999,"REV_AT_EPOCH":25166,"BSTAR":0.00019475879,"MEAN_MOTION_DOT":2.621e-5,"MEAN_MOTION_DDOT":0},{"OBJECT_NAME":"STARLINK-2280","OBJECT_ID":"2021-021B","EPOCH":"2025-09-25T07:57:30.001536","MEAN_MOTION":15.06391312,"ECCENTRICITY":0.00011894,"INCLINATION":53.0536,"RA_OF_ASC_NODE":288.9419,"ARG_OF_PERICENTER":79.5754,"MEAN_ANOMALY":280.5369,"EPHEMERIS_TYPE":0,"CLASSIFICATION_TYPE":"U","NORAD_CAT_ID":47861,"ELEMENT_SET_NO":999,"REV_AT_EPOCH":25134,"BSTAR":0.00010266875,"MEAN_MOTION_DOT":1.248e-5,"MEAN_MOTION_DDOT":0},{"OBJECT_NAME":"STARLINK-2291","OBJECT_ID":"2021-021C","EPOCH":"2025-09-25T05:53:26.816064","MEAN_MOTION":15.0638207,"ECCENTRICITY":0.00011504,"INCLINATION":53.0532,"RA_OF_ASC_NODE":284.3272,"ARG_OF_PERICENTER":87.9363,"MEAN_ANOMALY":272.1758,"EPHEMERIS_TYPE":0,"CLASSIFICATION_TYPE":"U","NORAD_CAT_ID":47862,"ELEMENT_SET_NO":999,"REV_AT_EPOCH":25139,"BSTAR":0.00059249537,"MEAN_MOTION_DOT":8.55e-5,"MEAN_MOTION_DDOT":0},{"OBJECT_NAME":"STARLINK-2326","OBJECT_ID":"2021-021L","EPOCH":"2025-09-24T12:37:44.912064","MEAN_MOTION":15.06388539,"ECCENTRICITY":0.00014404,"INCLINATION":53.0543,"RA_OF_ASC_NODE":312.5591,"ARG_OF_PERICENTER":87.5116,"MEAN_ANOMALY":272.6038,"EPHEMERIS_TYPE":0,"CLASSIFICATION_TYPE":"U","NORAD_CAT_ID":47870,"ELEMENT_SET_NO":999,"REV_AT_EPOCH":25083,"BSTAR":-0.00016263768,"MEAN_MOTION_DOT":-2.702e-5,"MEAN_MOTION_DDOT":0},{"OBJECT_NAME":"STARLINK-2329","OBJECT_ID":"2021-021P","EPOCH":"2025-09-25T06:46:31.219392","MEAN_MOTION":15.06397695,"ECCENTRICITY":0.00014662,"INCLINATION":53.0547,"RA_OF_ASC_NODE":284.1604,"ARG_OF_PERICENTER":90.2278,"MEAN_ANOMALY":269.8879,"EPHEMERIS_TYPE":0,"CLASSIFICATION_TYPE":"U","NORAD_CAT_ID":47873,"ELEMENT_SET_NO":999,"REV_AT_EPOCH":25139,"BSTAR":0.00014451822,"MEAN_MOTION_DOT":1.872e-5,"MEAN_MOTION_DDOT":0},{"OBJECT_NAME":"STARLINK-2330","OBJECT_ID":"2021-021Q","EPOCH":"2025-09-25T05:24:54.001728","MEAN_MOTION":15.06385518,"ECCENTRICITY":0.00014576,"INCLINATION":53.0532,"RA_OF_ASC_NODE":239.4237,"ARG_OF_PERICENTER":100.592,"MEAN_ANOMALY":259.5233,"EPHEMERIS_TYPE":0,"CLASSIFICATION_TYPE":"U","NORAD_CAT_ID":47874,"ELEMENT_SET_NO":999,"REV_AT_EPOCH":25202,"BSTAR":-0.00011903694,"MEAN_MOTION_DOT":-2.053e-5,"MEAN_MOTION_DDOT":0},{"OBJECT_NAME":"STARLINK-2336","OBJECT_ID":"2021-021V","EPOCH":"2025-09-25T06:51:09.719424","MEAN_MOTION":15.06389215,"ECCENTRICITY":0.00013881,"INCLINATION":53.0542,"RA_OF_ASC_NODE":309.1497,"ARG_OF_PERICENTER":105.253,"MEAN_ANOMALY":254.8613,"EPHEMERIS_TYPE":0,"CLASSIFICATION_TYPE":"U","NORAD_CAT_ID":47879,"ELEMENT_SET_NO":999,"REV_AT_EPOCH":25122,"BSTAR":0.00021317812,"MEAN_MOTION_DOT":2.894e-5,"MEAN_MOTION_DDOT":0},{"OBJECT_NAME":"STARLINK-2340","OBJECT_ID":"2021-021Y","EPOCH":"2025-09-25T06:23:24.438048","MEAN_MOTION":15.57205128,"ECCENTRICITY":0.00076565,"INCLINATION":53.0424,"RA_OF_ASC_NODE":228.0182,"ARG_OF_PERICENTER":92.46,"MEAN_ANOMALY":267.7288,"EPHEMERIS_TYPE":0,"CLASSIFICATION_TYPE":"U","NORAD_CAT_ID":47882,"ELEMENT_SET_NO":999,"REV_AT_EPOCH":25236,"BSTAR":0.0017391049,"MEAN_MOTION_DOT":0.00130573,"MEAN_MOTION_DDOT":0},{"OBJECT_NAME":"STARLINK-2342","OBJECT_ID":"2021-021Z","EPOCH":"2025-09-24T08:50:49.452288","MEAN_MOTION":15.06416409,"ECCENTRICITY":0.00015408,"INCLINATION":53.0542,"RA_OF_ASC_NODE":303.2656,"ARG_OF_PERICENTER":91.1925,"MEAN_ANOMALY":268.924,"EPHEMERIS_TYPE":0,"CLASSIFICATION_TYPE":"U","NORAD_CAT_ID":47883,"ELEMENT_SET_NO":999,"REV_AT_EPOCH":25122,"BSTAR":0.00036732149,"MEAN_MOTION_DOT":5.196e-5,"MEAN_MOTION_DDOT":0},{"OBJECT_NAME":"STARLINK-2343","OBJECT_ID":"2021-021AA","EPOCH":"2025-09-25T06:43:50.471328","MEAN_MOTION":15.06396322,"ECCENTRICITY":0.000103,"INCLINATION":53.0536,"RA_OF_ASC_NODE":304.173,"ARG_OF_PERICENTER":77.725,"MEAN_ANOMALY":282.3854,"EPHEMERIS_TYPE":0,"CLASSIFICATION_TYPE":"U","NORAD_CAT_ID":47884,"ELEMENT_SET_NO":999,"REV_AT_EPOCH":25111,"BSTAR":7.0186978e-5,"MEAN_MOTION_DOT":7.64e-6,"MEAN_MOTION_DDOT":0},{"OBJECT_NAME":"STARLINK-2346","OBJECT_ID":"2021-021AD","EPOCH":"2025-09-25T02:23:46.937184","MEAN_MOTION":15.06388263,"ECCENTRICITY":0.00016164,"INCLINATION":53.0559,"RA_OF_ASC_NODE":304.9832,"ARG_OF_PERICENTER":90.1041,"MEAN_ANOMALY":270.0133,"EPHEMERIS_TYPE":0,"CLASSIFICATION_TYPE":"U","NORAD_CAT_ID":47887,"ELEMENT_SET_NO":999,"REV_AT_EPOCH":25109,"BSTAR":0.00010372876,"MEAN_MOTION_DOT":1.263e-5,"MEAN_MOTION_DDOT":0},{"OBJECT_NAME":"STARLINK-2354","OBJECT_ID":"2021-021AL","EPOCH":"2025-09-24T08:48:50.206464","MEAN_MOTION":15.06413425,"ECCENTRICITY":0.00013971,"INCLINATION":53.0552,"RA_OF_ASC_NODE":298.2709,"ARG_OF_PERICENTER":87.2336,"MEAN_ANOMALY":272.8813,"EPHEMERIS_TYPE":0,"CLASSIFICATION_TYPE":"U","NORAD_CAT_ID":47894,"ELEMENT_SET_NO":999,"REV_AT_EPOCH":25107,"BSTAR":0.00012509181,"MEAN_MOTION_DOT":1.583e-5,"MEAN_MOTION_DDOT":0}]
