STARLINK-2432           
1 47840U 21018BF  25268.27402129  .00000733  00000+0  68146-4 0  9996
2 47840  53.0539 254.2008 0001235 103.3331 256.7796 15.06383632251946
STARLINK-2433           
1 47841U 21018BG  25268.27032587 -.00000412  00000+0 -87941-5 0  9995
2 47841  53.0547 254.2147 0001452  98.5695 261.5459 15.06381290251947
STARLINK-2435           
1 47843U 21018BJ  25268.29565796  .00000850  00000+0  75951-4 0  9993
2 47843  53.0540 279.1021 0001216  84.2992 275.8135 15.06392082251613
STARLINK-2446           
1 47844U 21018BK  25268.29427576  .00000793  00000+0  72145-4 0  9995
2 47844  53.0548 274.1067 0001361  89.3860 270.7285 15.06391571251665
STARLINK-2453           
1 47845U 21018BL  25268.24634235  .00002621  00000+0  19476-3 0  9992
2 47845  53.0537 274.3250 0001442  82.9497 277.1656 15.06406724251665
STARLINK-2280           
1 47861U 21021B   25268.33159724  .00001248  00000+0  10267-3 0  9992
2 47861  53.0536 288.9419 0001189  79.5754 280.5369 15.06391312251346
STARLINK-2291           
1 47862U 21021C   25268.24544926  .00008550  00000+0  59250-3 0  9993
2 47862  53.0532 284.3272 0001150  87.9363 272.1758 15.06382070251392
STARLINK-2326           
1 47870U 21021L   25267.52621426 -.00002702  00000+0 -16264-3 0  9996
2 47870  53.0543 312.5591 0001440  87.5116 272.6038 15.06388539250835
STARLINK-2329           
1 47873U 21021P   25268.28230578  .00001872  00000+0  14452-3 0  9999
2 47873  53.0547 284.1604 0001466  90.2278 269.8879 15.06397695251395
STARLINK-2330           
1 47874U 21021Q   25268.22562502 -.00002053  00000+0 -11904-3 0  9992
2 47874  53.0532 239.4237 0001457 100.5920 259.5233 15.06385518252026
STARLINK-2336           
1 47879U 21021V   25268.28552916  .00002894  00000+0  21318-3 0  9992
2 47879  53.0542 309.1497 0001388 105.2530 254.8613 15.06389215251226
STARLINK-2340           
1 47882U 21021Y   25268.26625507  .00130573  00000+0  17391-2 0  9992
2 47882  53.0424 228.0182 0007656  92.4600 267.7288 15.57205128252361
STARLINK-2342           
1 47883U 21021Z   25267.36862792  .00005196  00000+0  36732-3 0  9995
2 47883  53.0542 303.2656 0001540  91.1925 268.9240 15.06416409251222
STARLINK-2343           
1 47884U 21021AA  25268.28044527  .00000764  00000+0  70187-4 0  9995
2 47884  53.0536 304.1730 0001030  77.7250 282.3854 15.06396322251114
STARLINK-2346           
1 47887U 21021AD  25268.09984881  .00001263  00000+0  10373-3 0  9998
2 47887  53.0559 304.9832 0001616  90.1041 270.0133 15.06388263251096
STARLINK-2354           
1 47894U 21021AL  25267.36724776  .00001583  00000+0  12509-3 0  9998
2 47894  53.0552 298.2709 0001397  87.2336 272.8813 15.06413425251077
